[Satellite]
VERSION=1.1
NAME=TURKSAT 4B
NICKNAME=TURKSAT 4B
TLE1=1 40984U 15060A   17186.07440814  .00000110  00000-0  00000-0 0  9990
TLE2=2 40984   0.0165 353.8801 0002492 101.4363 264.7047  1.00270947  6334
